<?xml version="1.0" encoding="UTF-8"?>
<ndm xmlns:xsi="http://www.w3.org/2001/XMLSchema-instance" xsi:noNamespaceSchemaLocation="https://sanaregistry.org/r/ndmxml_unqualified/ndmxml-2.0.0-master-2.0.xsd">
<omm id="CCSDS_OMM_VERS" version="2.0">
<header><CREATION_DATE/><ORIGINATOR/></header><body><segment><metadata><OBJECT_NAME>KUIPER-00035</OBJECT_NAME><OBJECT_ID>2025-088AA</OBJECT_ID><CENTER_NAME>EARTH</CENTER_NAME><REF_FRAME>TEME</REF_FRAME><TIME_SYSTEM>UTC</TIME_SYSTEM><MEAN_ELEMENT_THEORY>SGP4</MEAN_ELEMENT_THEORY></metadata><data><meanElements><EPOCH>2025-10-08T18:22:09.607008</EPOCH><MEAN_MOTION>14.79895929</MEAN_MOTION><ECCENTRICITY>.0004365</ECCENTRICITY><INCLINATION>51.9008</INCLINATION><RA_OF_ASC_NODE>65.9128</RA_OF_ASC_NODE><ARG_OF_PERICENTER>287.6786</ARG_OF_PERICENTER><MEAN_ANOMALY>72.3700</MEAN_ANOMALY></meanElements><tleParameters><EPHEMERIS_TYPE>0</EPHEMERIS_TYPE><CLASSIFICATION_TYPE>U</CLASSIFICATION_TYPE><NORAD_CAT_ID>63748</NORAD_CAT_ID><ELEMENT_SET_NO>999</ELEMENT_SET_NO><REV_AT_EPOCH>2501</REV_AT_EPOCH><BSTAR>.66741E-3</BSTAR><MEAN_MOTION_DOT>.4866E-4</MEAN_MOTION_DOT><MEAN_MOTION_DDOT>0</MEAN_MOTION_DDOT></tleParameters></data></segment></body></omm>
<omm id="CCSDS_OMM_VERS" version="2.0">
<header><CREATION_DATE/><ORIGINATOR/></header><body><segment><metadata><OBJECT_NAME>KUIPER-00037</OBJECT_NAME><OBJECT_ID>2025-088AB</OBJECT_ID><CENTER_NAME>EARTH</CENTER_NAME><REF_FRAME>TEME</REF_FRAME><TIME_SYSTEM>UTC</TIME_SYSTEM><MEAN_ELEMENT_THEORY>SGP4</MEAN_ELEMENT_THEORY></metadata><data><meanElements><EPOCH>2025-10-08T20:01:39.294912</EPOCH><MEAN_MOTION>14.79802421</MEAN_MOTION><ECCENTRICITY>.0006711</ECCENTRICITY><INCLINATION>51.8990</INCLINATION><RA_OF_ASC_NODE>64.5652</RA_OF_ASC_NODE><ARG_OF_PERICENTER>231.1776</ARG_OF_PERICENTER><MEAN_ANOMALY>128.8588</MEAN_ANOMALY></meanElements><tleParameters><EPHEMERIS_TYPE>0</EPHEMERIS_TYPE><CLASSIFICATION_TYPE>U</CLASSIFICATION_TYPE><NORAD_CAT_ID>63749</NORAD_CAT_ID><ELEMENT_SET_NO>999</ELEMENT_SET_NO><REV_AT_EPOCH>2582</REV_AT_EPOCH><BSTAR>-.71554E-3</BSTAR><MEAN_MOTION_DOT>-.5658E-4</MEAN_MOTION_DOT><MEAN_MOTION_DDOT>0</MEAN_MOTION_DDOT></tleParameters></data></segment></body></omm>
<omm id="CCSDS_OMM_VERS" version="2.0">
<header><CREATION_DATE/><ORIGINATOR/></header><body><segment><metadata><OBJECT_NAME>KUIPER-00038</OBJECT_NAME><OBJECT_ID>2025-088AC</OBJECT_ID><CENTER_NAME>EARTH</CENTER_NAME><REF_FRAME>TEME</REF_FRAME><TIME_SYSTEM>UTC</TIME_SYSTEM><MEAN_ELEMENT_THEORY>SGP4</MEAN_ELEMENT_THEORY></metadata><data><meanElements><EPOCH>2025-10-08T16:27:24.321024</EPOCH><MEAN_MOTION>14.77013492</MEAN_MOTION><ECCENTRICITY>.0005428</ECCENTRICITY><INCLINATION>51.9019</INCLINATION><RA_OF_ASC_NODE>49.9195</RA_OF_ASC_NODE><ARG_OF_PERICENTER>300.8011</ARG_OF_PERICENTER><MEAN_ANOMALY>59.2416</MEAN_ANOMALY></meanElements><tleParameters><EPHEMERIS_TYPE>0</EPHEMERIS_TYPE><CLASSIFICATION_TYPE>U</CLASSIFICATION_TYPE><NORAD_CAT_ID>63750</NORAD_CAT_ID><ELEMENT_SET_NO>999</ELEMENT_SET_NO><REV_AT_EPOCH>2501</REV_AT_EPOCH><BSTAR>.54252E-3</BSTAR><MEAN_MOTION_DOT>.3646E-4</MEAN_MOTION_DOT><MEAN_MOTION_DDOT>0</MEAN_MOTION_DDOT></tleParameters></data></segment></body></omm>
<omm id="CCSDS_OMM_VERS" version="2.0">
<header><CREATION_DATE/><ORIGINATOR/></header><body><segment><metadata><OBJECT_NAME>KUIPER-00039</OBJECT_NAME><OBJECT_ID>2025-134A</OBJECT_ID><CENTER_NAME>EARTH</CENTER_NAME><REF_FRAME>TEME</REF_FRAME><TIME_SYSTEM>UTC</TIME_SYSTEM><MEAN_ELEMENT_THEORY>SGP4</MEAN_ELEMENT_THEORY></metadata><data><meanElements><EPOCH>2025-10-08T18:08:02.327136</EPOCH><MEAN_MOTION>14.79899931</MEAN_MOTION><ECCENTRICITY>.0012488</ECCENTRICITY><INCLINATION>51.8996</INCLINATION><RA_OF_ASC_NODE>184.9268</RA_OF_ASC_NODE><ARG_OF_PERICENTER>148.8767</ARG_OF_PERICENTER><MEAN_ANOMALY>211.2937</MEAN_ANOMALY></meanElements><tleParameters><EPHEMERIS_TYPE>0</EPHEMERIS_TYPE><CLASSIFICATION_TYPE>U</CLASSIFICATION_TYPE><NORAD_CAT_ID>64500</NORAD_CAT_ID><ELEMENT_SET_NO>999</ELEMENT_SET_NO><REV_AT_EPOCH>1757</REV_AT_EPOCH><BSTAR>.95076E-3</BSTAR><MEAN_MOTION_DOT>.7035E-4</MEAN_MOTION_DOT><MEAN_MOTION_DDOT>0</MEAN_MOTION_DDOT></tleParameters></data></segment></body></omm>
<omm id="CCSDS_OMM_VERS" version="2.0">
<header><CREATION_DATE/><ORIGINATOR/></header><body><segment><metadata><OBJECT_NAME>KUIPER-00040</OBJECT_NAME><OBJECT_ID>2025-134B</OBJECT_ID><CENTER_NAME>EARTH</CENTER_NAME><REF_FRAME>TEME</REF_FRAME><TIME_SYSTEM>UTC</TIME_SYSTEM><MEAN_ELEMENT_THEORY>SGP4</MEAN_ELEMENT_THEORY></metadata><data><meanElements><EPOCH>2025-10-08T11:21:14.442048</EPOCH><MEAN_MOTION>14.79935796</MEAN_MOTION><ECCENTRICITY>.00186546</ECCENTRICITY><INCLINATION>51.8998</INCLINATION><RA_OF_ASC_NODE>197.3411</RA_OF_ASC_NODE><ARG_OF_PERICENTER>126.9761</ARG_OF_PERICENTER><MEAN_ANOMALY>233.2913</MEAN_ANOMALY></meanElements><tleParameters><EPHEMERIS_TYPE>0</EPHEMERIS_TYPE><CLASSIFICATION_TYPE>U</CLASSIFICATION_TYPE><NORAD_CAT_ID>64501</NORAD_CAT_ID><ELEMENT_SET_NO>999</ELEMENT_SET_NO><REV_AT_EPOCH>1737</REV_AT_EPOCH><BSTAR>.10324909E-2</BSTAR><MEAN_MOTION_DOT>.7677E-4</MEAN_MOTION_DOT><MEAN_MOTION_DDOT>0</MEAN_MOTION_DDOT></tleParameters></data></segment></body></omm>
<omm id="CCSDS_OMM_VERS" version="2.0">
<header><CREATION_DATE/><ORIGINATOR/></header><body><segment><metadata><OBJECT_NAME>KUIPER-00041</OBJECT_NAME><OBJECT_ID>2025-134C</OBJECT_ID><CENTER_NAME>EARTH</CENTER_NAME><REF_FRAME>TEME</REF_FRAME><TIME_SYSTEM>UTC</TIME_SYSTEM><MEAN_ELEMENT_THEORY>SGP4</MEAN_ELEMENT_THEORY></metadata><data><meanElements><EPOCH>2025-10-08T11:19:53.435136</EPOCH><MEAN_MOTION>14.79920423</MEAN_MOTION><ECCENTRICITY>.00150216</ECCENTRICITY><INCLINATION>51.8987</INCLINATION><RA_OF_ASC_NODE>198.7062</RA_OF_ASC_NODE><ARG_OF_PERICENTER>121.7079</ARG_OF_PERICENTER><MEAN_ANOMALY>238.5350</MEAN_ANOMALY></meanElements><tleParameters><EPHEMERIS_TYPE>0</EPHEMERIS_TYPE><CLASSIFICATION_TYPE>U</CLASSIFICATION_TYPE><NORAD_CAT_ID>64502</NORAD_CAT_ID><ELEMENT_SET_NO>999</ELEMENT_SET_NO><REV_AT_EPOCH>1735</REV_AT_EPOCH><BSTAR>.10310108E-2</BSTAR><MEAN_MOTION_DOT>.7656E-4</MEAN_MOTION_DOT><MEAN_MOTION_DDOT>0</MEAN_MOTION_DDOT></tleParameters></data></segment></body></omm>
<omm id="CCSDS_OMM_VERS" version="2.0">
<header><CREATION_DATE/><ORIGINATOR/></header><body><segment><metadata><OBJECT_NAME>KUIPER-00042</OBJECT_NAME><OBJECT_ID>2025-134D</OBJECT_ID><CENTER_NAME>EARTH</CENTER_NAME><REF_FRAME>TEME</REF_FRAME><TIME_SYSTEM>UTC</TIME_SYSTEM><MEAN_ELEMENT_THEORY>SGP4</MEAN_ELEMENT_THEORY></metadata><data><meanElements><EPOCH>2025-10-08T19:31:26.912352</EPOCH><MEAN_MOTION>14.79857044</MEAN_MOTION><ECCENTRICITY>.0014052</ECCENTRICITY><INCLINATION>51.8987</INCLINATION><RA_OF_ASC_NODE>193.1931</RA_OF_ASC_NODE><ARG_OF_PERICENTER>131.0826</ARG_OF_PERICENTER><MEAN_ANOMALY>229.1353</MEAN_ANOMALY></meanElements><tleParameters><EPHEMERIS_TYPE>0</EPHEMERIS_TYPE><CLASSIFICATION_TYPE>U</CLASSIFICATION_TYPE><NORAD_CAT_ID>64503</NORAD_CAT_ID><ELEMENT_SET_NO>999</ELEMENT_SET_NO><REV_AT_EPOCH>1746</REV_AT_EPOCH><BSTAR>.9506E-3</BSTAR><MEAN_MOTION_DOT>.7028E-4</MEAN_MOTION_DOT><MEAN_MOTION_DDOT>0</MEAN_MOTION_DDOT></tleParameters></data></segment></body></omm>

</ndm>
