KUIPER-00035            
1 63748U 25088AA  25281.76538897  .00004866  00000+0  66741-3 0  9992
2 63748  51.9008  65.9128 0004365 287.6786  72.3700 14.79895929 25016
KUIPER-00037            
1 63749U 25088AB  25281.83448258 -.00005658  00000+0 -71554-3 0  9992
2 63749  51.8990  64.5652 0006711 231.1776 128.8588 14.79802421 25828
KUIPER-00038            
1 63750U 25088AC  25281.68569816  .00003646  00000+0  54252-3 0  9990
2 63750  51.9019  49.9195 0005428 300.8011  59.2416 14.77013492 25010
KUIPER-00039            
1 64500U 25134A   25281.75558249  .00007035  00000+0  95076-3 0  9997
2 64500  51.8996 184.9268 0012488 148.8767 211.2937 14.79899931 17572
KUIPER-00040            
1 64501U 25134B   25281.47308382  .00007677  00000+0  10325-2 0  9993
2 64501  51.8998 197.3411 0018654 126.9761 233.2913 14.79935796 17371
KUIPER-00041            
1 64502U 25134C   25281.47214624  .00007656  00000+0  10310-2 0  9990
2 64502  51.8987 198.7062 0015021 121.7079 238.5350 14.79920423 17359
KUIPER-00042            
1 64503U 25134D   25281.81350593  .00007028  00000+0  95060-3 0  9994
2 64503  51.8987 193.1931 0014052 131.0826 229.1353 14.79857044 17460
